start=new Date('2023-02-03T00:00:00.000Z').valueOf();
sats=[{"GP_ID":"224259736","BSTAR":"-0.00000490590000","NORAD_CAT_ID":"53678","APOAPSIS":"564.064","MEAN_MOTION":"15.01262051","EPHEMERIS_TYPE":"0","ELEMENT_SET_NO":"999","PERIOD":"95.919","SEMIMAJOR_AXIS":"6941.141","TLE_LINE2":"2 53678  97.6558 276.8921 0001525  99.4125 260.7272 15.01262051 23867","RA_OF_ASC_NODE":"276.8921","LAUNCH_DATE":"2022-08-31","OBJECT_ID":"2022-105AG","ARG_OF_PERICENTER":"99.4125","EPOCH":"2023-02-02T21:47:18.818880","MEAN_ELEMENT_THEORY":"SGP4","ECCENTRICITY":"0.00015250","REV_AT_EPOCH":"2386","PERIAPSIS":"561.947","CLASSIFICATION_TYPE":"U","OBJECT_NAME":"STARLINK-4418","TLE_LINE1":"1 53678U 22105AG  23033.90785670 -.00000122  00000-0 -49059-5 0  9991","MEAN_ANOMALY":"260.7272","DECAY_DATE":null,"MEAN_MOTION_DOT":"-0.00000122","OBJECT_TYPE":"PAYLOAD","FILE":"3769031","SITE":"AFWTR","REF_FRAME":"TEME","MEAN_MOTION_DDOT":"0.0000000000000","COUNTRY_CODE":"US","RCS_SIZE":"LARGE","CENTER_NAME":"EARTH","TIME_SYSTEM":"UTC","INCLINATION":"97.6558"},{"BSTAR":"0.00006978400000","GP_ID":"224259230","EPHEMERIS_TYPE":"0","APOAPSIS":"564.017","MEAN_MOTION":"15.01264650","NORAD_CAT_ID":"53679","PERIOD":"95.919","ELEMENT_SET_NO":"999","RA_OF_ASC_NODE":"276.8952","SEMIMAJOR_AXIS":"6941.133","TLE_LINE2":"2 53679  97.6561 276.8952 0001469 104.2179 255.9209 15.01264650 23860","LAUNCH_DATE":"2022-08-31","OBJECT_ID":"2022-105AH","EPOCH":"2023-02-02T21:52:38.597376","ARG_OF_PERICENTER":"104.2179","MEAN_ELEMENT_THEORY":"SGP4","PERIAPSIS":"561.978","REV_AT_EPOCH":"2386","ECCENTRICITY":"0.00014690","TLE_LINE1":"1 53679U 22105AH  23033.91155784  .00000838  00000-0  69784-4 0  9998","DECAY_DATE":null,"MEAN_ANOMALY":"255.9209","OBJECT_NAME":"STARLINK-4632","CLASSIFICATION_TYPE":"U","OBJECT_TYPE":"PAYLOAD","MEAN_MOTION_DOT":"0.00000838","SITE":"AFWTR","FILE":"3769031","COUNTRY_CODE":"US","REF_FRAME":"TEME","MEAN_MOTION_DDOT":"0.0000000000000","CENTER_NAME":"EARTH","TIME_SYSTEM":"UTC","RCS_SIZE":"LARGE","INCLINATION":"97.6561"},{"FILE":"3769031","SITE":"AFWTR","MEAN_MOTION_DDOT":"0.0000000000000","REF_FRAME":"TEME","COUNTRY_CODE":"US","RCS_SIZE":"LARGE","TIME_SYSTEM":"UTC","CENTER_NAME":"EARTH","INCLINATION":"97.6558","MEAN_ELEMENT_THEORY":"SGP4","ECCENTRICITY":"0.00011280","REV_AT_EPOCH":"2386","PERIAPSIS":"562.234","CLASSIFICATION_TYPE":"U","OBJECT_NAME":"STARLINK-4630","TLE_LINE1":"1 53680U 22105AJ  23033.90415473 -.00000382  00000-0 -25138-4 0  9994","DECAY_DATE":null,"MEAN_ANOMALY":"253.7419","MEAN_MOTION_DOT":"-0.00000382","OBJECT_TYPE":"PAYLOAD","SEMIMAJOR_AXIS":"6941.152","TLE_LINE2":"2 53680  97.6558 276.8879 0001128 106.3930 253.7419 15.01258437 23861","RA_OF_ASC_NODE":"276.8879","LAUNCH_DATE":"2022-08-31","OBJECT_ID":"2022-105AJ","ARG_OF_PERICENTER":"106.3930","EPOCH":"2023-02-02T21:41:58.968672","GP_ID":"224259727","BSTAR":"-0.00002513800000","NORAD_CAT_ID":"53680","APOAPSIS":"563.800","MEAN_MOTION":"15.01258437","EPHEMERIS_TYPE":"0","PERIOD":"95.920","ELEMENT_SET_NO":"999"},{"OBJECT_TYPE":"PAYLOAD","MEAN_MOTION_DOT":"-0.00000105","CLASSIFICATION_TYPE":"U","TLE_LINE1":"1 53681U 22105AK  23033.24157745 -.00000105  00000-0 -35863-5 0  9997","MEAN_ANOMALY":"305.9486","DECAY_DATE":null,"OBJECT_NAME":"STARLINK-4424","PERIAPSIS":"561.838","ECCENTRICITY":"0.00017140","REV_AT_EPOCH":"2348","MEAN_ELEMENT_THEORY":"SGP4","INCLINATION":"97.6542","RCS_SIZE":"LARGE","CENTER_NAME":"EARTH","TIME_SYSTEM":"UTC","COUNTRY_CODE":"US","REF_FRAME":"TEME","MEAN_MOTION_DDOT":"0.0000000000000","FILE":"3768366","SITE":"AFWTR","ELEMENT_SET_NO":"999","PERIOD":"95.920","NORAD_CAT_ID":"53681","MEAN_MOTION":"15.01254715","APOAPSIS":"564.218","EPHEMERIS_TYPE":"0","GP_ID":"224243377","BSTAR":"-0.00000358630000","ARG_OF_PERICENTER":"54.1897","EPOCH":"2023-02-02T05:47:52.291680","OBJECT_ID":"2022-105AK","LAUNCH_DATE":"2022-08-31","TLE_LINE2":"2 53681  97.6542 276.2300 0001714  54.1897 305.9486 15.01254715 23488","SEMIMAJOR_AXIS":"6941.163","RA_OF_ASC_NODE":"276.2300"},{"REV_AT_EPOCH":"2353","ECCENTRICITY":"0.00016760","PERIAPSIS":"561.844","MEAN_ELEMENT_THEORY":"SGP4","MEAN_MOTION_DOT":"-0.00001716","OBJECT_TYPE":"PAYLOAD","OBJECT_NAME":"STARLINK-4438","TLE_LINE1":"1 53682U 22105AL  23033.56743246 -.00001716  00000-0 -12904-3 0  9998","DECAY_DATE":null,"MEAN_ANOMALY":"262.3314","CLASSIFICATION_TYPE":"U","REF_FRAME":"TEME","MEAN_MOTION_DDOT":"0.0000000000000","COUNTRY_CODE":"US","SITE":"AFWTR","FILE":"3768366","INCLINATION":"97.6567","CENTER_NAME":"EARTH","TIME_SYSTEM":"UTC","RCS_SIZE":"LARGE","APOAPSIS":"564.171","EPHEMERIS_TYPE":"0","MEAN_MOTION":"15.01261325","NORAD_CAT_ID":"53682","BSTAR":"-0.00012904000000","GP_ID":"224244597","PERIOD":"95.919","ELEMENT_SET_NO":"999","LAUNCH_DATE":"2022-08-31","RA_OF_ASC_NODE":"276.5566","TLE_LINE2":"2 53682  97.6567 276.5566 0001676  97.8101 262.3314 15.01261325 23539","SEMIMAJOR_AXIS":"6941.143","EPOCH":"2023-02-02T13:37:06.164544","ARG_OF_PERICENTER":"97.8101","OBJECT_ID":"2022-105AL"},{"REF_FRAME":"TEME","MEAN_MOTION_DDOT":"0.0000000000000","COUNTRY_CODE":"US","SITE":"AFWTR","FILE":"3768366","INCLINATION":"97.6543","CENTER_NAME":"EARTH","TIME_SYSTEM":"UTC","RCS_SIZE":"LARGE","ECCENTRICITY":"0.00012500","REV_AT_EPOCH":"2348","PERIAPSIS":"562.074","MEAN_ELEMENT_THEORY":"SGP4","MEAN_MOTION_DOT":"-0.00009395","OBJECT_TYPE":"PAYLOAD","OBJECT_NAME":"STARLINK-4625","TLE_LINE1":"1 53683U 22105AM  23033.23946775 -.00009395  00000-0 -72739-3 0  9998","MEAN_ANOMALY":"252.8136","DECAY_DATE":null,"CLASSIFICATION_TYPE":"U","LAUNCH_DATE":"2022-08-31","RA_OF_ASC_NODE":"276.2358","TLE_LINE2":"2 53683  97.6543 276.2358 0001250 107.3225 252.8136 15.01282902 23486","SEMIMAJOR_AXIS":"6941.076","EPOCH":"2023-02-02T05:44:50.013600","ARG_OF_PERICENTER":"107.3225","OBJECT_ID":"2022-105AM","APOAPSIS":"563.809","EPHEMERIS_TYPE":"0","MEAN_MOTION":"15.01282902","NORAD_CAT_ID":"53683","BSTAR":"-0.00072739000000","GP_ID":"224244354","ELEMENT_SET_NO":"999","PERIOD":"95.918"},{"OBJECT_TYPE":"PAYLOAD","MEAN_MOTION_DOT":"0.00000632","CLASSIFICATION_TYPE":"U","TLE_LINE1":"1 53684U 22105AN  23033.55262731  .00000632  00000-0  53765-4 0  9999","DECAY_DATE":null,"MEAN_ANOMALY":"264.5632","OBJECT_NAME":"STARLINK-4624","PERIAPSIS":"561.289","REV_AT_EPOCH":"2352","ECCENTRICITY":"0.00024860","MEAN_ELEMENT_THEORY":"SGP4","INCLINATION":"97.6563","RCS_SIZE":"LARGE","TIME_SYSTEM":"UTC","CENTER_NAME":"EARTH","COUNTRY_CODE":"US","MEAN_MOTION_DDOT":"0.0000000000000","REF_FRAME":"TEME","FILE":"3768366","SITE":"AFWTR","PERIOD":"95.919","ELEMENT_SET_NO":"999","NORAD_CAT_ID":"53684","MEAN_MOTION":"15.01259170","APOAPSIS":"564.740","EPHEMERIS_TYPE":"0","GP_ID":"224243131","BSTAR":"0.00005376500000","ARG_OF_PERICENTER":"95.5876","EPOCH":"2023-02-02T13:15:46.999584","OBJECT_ID":"2022-105AN","LAUNCH_DATE":"2022-08-31","SEMIMAJOR_AXIS":"6941.149","TLE_LINE2":"2 53684  97.6563 276.5597 0002486  95.5876 264.5632 15.01259170 23526","RA_OF_ASC_NODE":"276.5597"},{"RCS_SIZE":"LARGE","CENTER_NAME":"EARTH","TIME_SYSTEM":"UTC","INCLINATION":"97.6559","FILE":"3769034","SITE":"AFWTR","MEAN_MOTION_DDOT":"0.0000000000000","REF_FRAME":"TEME","COUNTRY_CODE":"US","CLASSIFICATION_TYPE":"U","OBJECT_NAME":"STARLINK-4626","TLE_LINE1":"1 53685U 22105AP  23033.90230212  .00000150  00000-0  16246-4 0  9996","DECAY_DATE":null,"MEAN_ANOMALY":"255.8442","MEAN_MOTION_DOT":"0.00000150","OBJECT_TYPE":"PAYLOAD","MEAN_ELEMENT_THEORY":"SGP4","ECCENTRICITY":"0.00015910","REV_AT_EPOCH":"2386","PERIAPSIS":"561.902","OBJECT_ID":"2022-105AP","ARG_OF_PERICENTER":"104.2959","EPOCH":"2023-02-02T21:39:18.903168","TLE_LINE2":"2 53685  97.6559 276.8870 0001591 104.2959 255.8442 15.01261907 23865","SEMIMAJOR_AXIS":"6941.141","RA_OF_ASC_NODE":"276.8870","LAUNCH_DATE":"2022-08-31","ELEMENT_SET_NO":"999","PERIOD":"95.919","GP_ID":"224259786","BSTAR":"0.00001624600000","NORAD_CAT_ID":"53685","APOAPSIS":"564.110","MEAN_MOTION":"15.01261907","EPHEMERIS_TYPE":"0"},{"INCLINATION":"97.6574","TIME_SYSTEM":"UTC","CENTER_NAME":"EARTH","RCS_SIZE":"LARGE","MEAN_MOTION_DDOT":"0.0000000000000","REF_FRAME":"TEME","COUNTRY_CODE":"US","SITE":"AFWTR","FILE":"3769034","MEAN_MOTION_DOT":"0.00001183","OBJECT_TYPE":"PAYLOAD","OBJECT_NAME":"STARLINK-4467","TLE_LINE1":"1 53686U 22105AQ  23033.56533850  .00001183  00000-0  96686-4 0  9996","DECAY_DATE":null,"MEAN_ANOMALY":"267.9359","CLASSIFICATION_TYPE":"U","REV_AT_EPOCH":"2381","ECCENTRICITY":"0.00017750","PERIAPSIS":"561.769","MEAN_ELEMENT_THEORY":"SGP4","EPOCH":"2023-02-02T13:34:05.246400","ARG_OF_PERICENTER":"92.2068","OBJECT_ID":"2022-105AQ","LAUNCH_DATE":"2022-08-31","RA_OF_ASC_NODE":"276.5549","SEMIMAJOR_AXIS":"6941.136","TLE_LINE2":"2 53686  97.6574 276.5549 0001775  92.2068 267.9359 15.01263402 23812","PERIOD":"95.919","ELEMENT_SET_NO":"999","APOAPSIS":"564.233","EPHEMERIS_TYPE":"0","MEAN_MOTION":"15.01263402","NORAD_CAT_ID":"53686","BSTAR":"0.00009668600000","GP_ID":"224259785"},{"MEAN_ELEMENT_THEORY":"SGP4","ECCENTRICITY":"0.00018410","REV_AT_EPOCH":"2382","PERIAPSIS":"561.730","OBJECT_NAME":"STARLINK-4569","TLE_LINE1":"1 53687U 22105AR  23033.63384336  .00000510  00000-0  44308-4 0  9995","MEAN_ANOMALY":"261.4776","DECAY_DATE":null,"CLASSIFICATION_TYPE":"U","MEAN_MOTION_DOT":"0.00000510","OBJECT_TYPE":"PAYLOAD","SITE":"AFWTR","FILE":"3769034","REF_FRAME":"TEME","MEAN_MOTION_DDOT":"0.0000000000000","COUNTRY_CODE":"US","TIME_SYSTEM":"UTC","CENTER_NAME":"EARTH","RCS_SIZE":"LARGE","INCLINATION":"97.6560","BSTAR":"0.00004430800000","GP_ID":"224259281","MEAN_MOTION":"15.01261325","APOAPSIS":"564.286","EPHEMERIS_TYPE":"0","NORAD_CAT_ID":"53687","ELEMENT_SET_NO":"999","PERIOD":"95.919","RA_OF_ASC_NODE":"276.6238","TLE_LINE2":"2 53687  97.6560 276.6238 0001841  98.6656 261.4776 15.01261325 23826","SEMIMAJOR_AXIS":"6941.143","LAUNCH_DATE":"2022-08-31","OBJECT_ID":"2022-105AR","EPOCH":"2023-02-02T15:12:44.066304","ARG_OF_PERICENTER":"98.6656"}];
